[{"OBJECT_NAME":"TRANSPORTER-15 OBJECT CD","OBJECT_ID":"2025-276CD","EPOCH":"2026-03-06T20:38:14.841600","MEAN_MOTION":15.18860021,"ECCENTRICITY":0.00053081,"INCLINATION":97.4316,"RA_OF_ASC_NODE":141.2013,"ARG_OF_PERICENTER":3.5398,"MEAN_ANOMALY":356.5873,"EPHEMERIS_TYPE":0,"CLASSIFICATION_TYPE":"U","NORAD_CAT_ID":66741,"ELEMENT_SET_NO":999,"REV_AT_EPOCH":1218,"BSTAR":0.00084273364,"MEAN_MOTION_DOT":0.0001753,"MEAN_MOTION_DDOT":0},{"OBJECT_NAME":"STARLINK-36151","OBJECT_ID":"2025-299X","EPOCH":"2026-03-09T22:00:01.999584","MEAN_MOTION":15.36387486,"ECCENTRICITY":0.00011462,"INCLINATION":42.9991,"RA_OF_ASC_NODE":167.613,"ARG_OF_PERICENTER":265.1086,"MEAN_ANOMALY":42.0682,"EPHEMERIS_TYPE":0,"CLASSIFICATION_TYPE":"U","NORAD_CAT_ID":67123,"ELEMENT_SET_NO":999,"REV_AT_EPOCH":590,"BSTAR":-0.062696381,"MEAN_MOTION_DOT":-0.02019994,"MEAN_MOTION_DDOT":0}]
